[{"OBJECT_NAME":"ONEWEB-0282","OBJECT_ID":"2021-060AK","EPOCH":"2026-01-11T03:54:18.058464","MEAN_MOTION":13.16594181,"ECCENTRICITY":0.00013843,"INCLINATION":87.9036,"RA_OF_ASC_NODE":260.0463,"ARG_OF_PERICENTER":73.2214,"MEAN_ANOMALY":286.9069,"EPHEMERIS_TYPE":0,"CLASSIFICATION_TYPE":"U","NORAD_CAT_ID":49000,"ELEMENT_SET_NO":999,"REV_AT_EPOCH":21894,"BSTAR":8.9373552e-5,"MEAN_MOTION_DOT":4.7e-7,"MEAN_MOTION_DDOT":0},{"OBJECT_NAME":"ONEWEB-0283","OBJECT_ID":"2021-060AL","EPOCH":"2026-01-11T03:38:20.705856","MEAN_MOTION":13.16595463,"ECCENTRICITY":0.00014649,"INCLINATION":87.9036,"RA_OF_ASC_NODE":260.0491,"ARG_OF_PERICENTER":69.5011,"MEAN_ANOMALY":290.6277,"EPHEMERIS_TYPE":0,"CLASSIFICATION_TYPE":"U","NORAD_CAT_ID":49001,"ELEMENT_SET_NO":999,"REV_AT_EPOCH":21895,"BSTAR":0.00019987356,"MEAN_MOTION_DOT":8.9e-7,"MEAN_MOTION_DDOT":0},{"OBJECT_NAME":"ONEWEB-0284","OBJECT_ID":"2021-060AM","EPOCH":"2026-01-11T03:29:13.522560","MEAN_MOTION":13.16594397,"ECCENTRICITY":0.00011893,"INCLINATION":87.9036,"RA_OF_ASC_NODE":260.0404,"ARG_OF_PERICENTER":86.9463,"MEAN_ANOMALY":273.1804,"EPHEMERIS_TYPE":0,"CLASSIFICATION_TYPE":"U","NORAD_CAT_ID":49002,"ELEMENT_SET_NO":999,"REV_AT_EPOCH":21893,"BSTAR":0.0003939537,"MEAN_MOTION_DOT":1.63e-6,"MEAN_MOTION_DDOT":0},{"OBJECT_NAME":"ONEWEB-0285","OBJECT_ID":"2021-075A","EPOCH":"2026-01-11T00:15:49.725216","MEAN_MOTION":13.12441221,"ECCENTRICITY":0.00016937,"INCLINATION":87.8926,"RA_OF_ASC_NODE":21.8693,"ARG_OF_PERICENTER":90.1677,"MEAN_ANOMALY":269.9646,"EPHEMERIS_TYPE":0,"CLASSIFICATION_TYPE":"U","NORAD_CAT_ID":49075,"ELEMENT_SET_NO":999,"REV_AT_EPOCH":21459,"BSTAR":0.001169694,"MEAN_MOTION_DOT":4.34e-6,"MEAN_MOTION_DDOT":0},{"OBJECT_NAME":"ONEWEB-0286","OBJECT_ID":"2021-075B","EPOCH":"2026-01-11T07:10:10.343712","MEAN_MOTION":13.12443974,"ECCENTRICITY":0.00019395,"INCLINATION":87.8922,"RA_OF_ASC_NODE":21.8434,"ARG_OF_PERICENTER":92.4404,"MEAN_ANOMALY":267.6946,"EPHEMERIS_TYPE":0,"CLASSIFICATION_TYPE":"U","NORAD_CAT_ID":49076,"ELEMENT_SET_NO":999,"REV_AT_EPOCH":21398,"BSTAR":-0.00027378256,"MEAN_MOTION_DOT":-8.6e-7,"MEAN_MOTION_DDOT":0},{"OBJECT_NAME":"ONEWEB-0287","OBJECT_ID":"2021-075C","EPOCH":"2026-01-11T03:08:09.010176","MEAN_MOTION":13.17648001,"ECCENTRICITY":0.00021695,"INCLINATION":87.9093,"RA_OF_ASC_NODE":37.0858,"ARG_OF_PERICENTER":102.2502,"MEAN_ANOMALY":257.8873,"EPHEMERIS_TYPE":0,"CLASSIFICATION_TYPE":"U","NORAD_CAT_ID":49077,"ELEMENT_SET_NO":999,"REV_AT_EPOCH":21294,"BSTAR":0.000238611,"MEAN_MOTION_DOT":1.06e-6,"MEAN_MOTION_DDOT":0},{"OBJECT_NAME":"ONEWEB-0288","OBJECT_ID":"2021-075D","EPOCH":"2026-01-11T06:36:12.287808","MEAN_MOTION":13.1244441,"ECCENTRICITY":0.00017219,"INCLINATION":87.8925,"RA_OF_ASC_NODE":21.8118,"ARG_OF_PERICENTER":94.1329,"MEAN_ANOMALY":265.9997,"EPHEMERIS_TYPE":0,"CLASSIFICATION_TYPE":"U","NORAD_CAT_ID":49078,"ELEMENT_SET_NO":999,"REV_AT_EPOCH":21460,"BSTAR":-0.00088557506,"MEAN_MOTION_DOT":-3.06e-6,"MEAN_MOTION_DDOT":0},{"OBJECT_NAME":"ONEWEB-0289","OBJECT_ID":"2021-075E","EPOCH":"2026-01-11T07:42:32.728032","MEAN_MOTION":13.17649152,"ECCENTRICITY":0.00014497,"INCLINATION":87.9086,"RA_OF_ASC_NODE":37.0606,"ARG_OF_PERICENTER":102.6482,"MEAN_ANOMALY":257.4812,"EPHEMERIS_TYPE":0,"CLASSIFICATION_TYPE":"U","NORAD_CAT_ID":49079,"ELEMENT_SET_NO":999,"REV_AT_EPOCH":21354,"BSTAR":-3.442729e-5,"MEAN_MOTION_DOT":0,"MEAN_MOTION_DDOT":0},{"OBJECT_NAME":"ONEWEB-0290","OBJECT_ID":"2021-075F","EPOCH":"2026-01-11T07:03:51.762240","MEAN_MOTION":13.17649426,"ECCENTRICITY":0.00011862,"INCLINATION":87.9096,"RA_OF_ASC_NODE":37.0303,"ARG_OF_PERICENTER":96.5409,"MEAN_ANOMALY":263.5858,"EPHEMERIS_TYPE":0,"CLASSIFICATION_TYPE":"U","NORAD_CAT_ID":49080,"ELEMENT_SET_NO":999,"REV_AT_EPOCH":21295,"BSTAR":-0.00013053007,"MEAN_MOTION_DOT":-3.8e-7,"MEAN_MOTION_DDOT":0},{"OBJECT_NAME":"ONEWEB-0291","OBJECT_ID":"2021-075G","EPOCH":"2026-01-11T03:03:17.666784","MEAN_MOTION":13.17650167,"ECCENTRICITY":0.00018701,"INCLINATION":87.9098,"RA_OF_ASC_NODE":37.0711,"ARG_OF_PERICENTER":106.4238,"MEAN_ANOMALY":253.71,"EPHEMERIS_TYPE":0,"CLASSIFICATION_TYPE":"U","NORAD_CAT_ID":49081,"ELEMENT_SET_NO":999,"REV_AT_EPOCH":21292,"BSTAR":0.00024630221,"MEAN_MOTION_DOT":1.09e-6,"MEAN_MOTION_DDOT":0},{"OBJECT_NAME":"ONEWEB-0293","OBJECT_ID":"2021-075H","EPOCH":"2026-01-11T07:18:26.539776","MEAN_MOTION":13.17650377,"ECCENTRICITY":0.00016661,"INCLINATION":87.9086,"RA_OF_ASC_NODE":37.053,"ARG_OF_PERICENTER":96.9249,"MEAN_ANOMALY":263.2072,"EPHEMERIS_TYPE":0,"CLASSIFICATION_TYPE":"U","NORAD_CAT_ID":49082,"ELEMENT_SET_NO":999,"REV_AT_EPOCH":21297,"BSTAR":-2.6990347e-5,"MEAN_MOTION_DOT":2.0e-8,"MEAN_MOTION_DDOT":0},{"OBJECT_NAME":"ONEWEB-0294","OBJECT_ID":"2021-075J","EPOCH":"2026-01-11T06:45:57.836160","MEAN_MOTION":13.12444526,"ECCENTRICITY":0.0001446,"INCLINATION":87.8928,"RA_OF_ASC_NODE":21.8126,"ARG_OF_PERICENTER":96.8063,"MEAN_ANOMALY":263.323,"EPHEMERIS_TYPE":0,"CLASSIFICATION_TYPE":"U","NORAD_CAT_ID":49083,"ELEMENT_SET_NO":999,"REV_AT_EPOCH":21399,"BSTAR":-0.0011820516,"MEAN_MOTION_DOT":-4.13e-6,"MEAN_MOTION_DDOT":0},{"OBJECT_NAME":"ONEWEB-0295","OBJECT_ID":"2021-075K","EPOCH":"2026-01-11T07:17:11.999040","MEAN_MOTION":13.17650488,"ECCENTRICITY":0.00019265,"INCLINATION":87.9087,"RA_OF_ASC_NODE":37.0576,"ARG_OF_PERICENTER":104.224,"MEAN_ANOMALY":255.9105,"EPHEMERIS_TYPE":0,"CLASSIFICATION_TYPE":"U","NORAD_CAT_ID":49084,"ELEMENT_SET_NO":999,"REV_AT_EPOCH":21293,"BSTAR":-0.00013517917,"MEAN_MOTION_DOT":-4.0e-7,"MEAN_MOTION_DDOT":0},{"OBJECT_NAME":"ONEWEB-0296","OBJECT_ID":"2021-075L","EPOCH":"2026-01-11T06:16:41.486592","MEAN_MOTION":13.12443767,"ECCENTRICITY":0.00018147,"INCLINATION":87.8925,"RA_OF_ASC_NODE":21.82,"ARG_OF_PERICENTER":102.2029,"MEAN_ANOMALY":257.9303,"EPHEMERIS_TYPE":0,"CLASSIFICATION_TYPE":"U","NORAD_CAT_ID":49085,"ELEMENT_SET_NO":999,"REV_AT_EPOCH":21399,"BSTAR":0.00010125445,"MEAN_MOTION_DOT":4.9e-7,"MEAN_MOTION_DDOT":0},{"OBJECT_NAME":"ONEWEB-0297","OBJECT_ID":"2021-075M","EPOCH":"2026-01-11T07:00:36.599328","MEAN_MOTION":13.12443662,"ECCENTRICITY":0.00018111,"INCLINATION":87.8918,"RA_OF_ASC_NODE":21.8437,"ARG_OF_PERICENTER":93.1571,"MEAN_ANOMALY":266.9765,"EPHEMERIS_TYPE":0,"CLASSIFICATION_TYPE":"U","NORAD_CAT_ID":49086,"ELEMENT_SET_NO":999,"REV_AT_EPOCH":21460,"BSTAR":-0.001029951,"MEAN_MOTION_DOT":-3.58e-6,"MEAN_MOTION_DDOT":0},{"OBJECT_NAME":"ONEWEB-0298","OBJECT_ID":"2021-075N","EPOCH":"2026-01-11T07:23:29.833152","MEAN_MOTION":13.17649613,"ECCENTRICITY":0.00019476,"INCLINATION":87.9087,"RA_OF_ASC_NODE":37.0533,"ARG_OF_PERICENTER":91.981,"MEAN_ANOMALY":268.1545,"EPHEMERIS_TYPE":0,"CLASSIFICATION_TYPE":"U","NORAD_CAT_ID":49087,"ELEMENT_SET_NO":999,"REV_AT_EPOCH":21296,"BSTAR":-0.0001129084,"MEAN_MOTION_DOT":-3.1e-7,"MEAN_MOTION_DDOT":0},{"OBJECT_NAME":"ONEWEB-0299","OBJECT_ID":"2021-075P","EPOCH":"2026-01-11T07:25:43.708224","MEAN_MOTION":13.17649998,"ECCENTRICITY":0.00019325,"INCLINATION":87.9097,"RA_OF_ASC_NODE":37.0179,"ARG_OF_PERICENTER":97.8157,"MEAN_ANOMALY":262.3194,"EPHEMERIS_TYPE":0,"CLASSIFICATION_TYPE":"U","NORAD_CAT_ID":49088,"ELEMENT_SET_NO":999,"REV_AT_EPOCH":21294,"BSTAR":-9.904287e-5,"MEAN_MOTION_DOT":-2.6e-7,"MEAN_MOTION_DDOT":0}]
