ONEWEB-0282             
1 49000U 21060AK  26011.16270901  .00000047  00000+0  89374-4 0  9993
2 49000  87.9036 260.0463 0001384  73.2214 286.9069 13.16594181218947
ONEWEB-0283             
1 49001U 21060AL  26011.15162854  .00000089  00000+0  19987-3 0  9998
2 49001  87.9036 260.0491 0001464  69.5011 290.6277 13.16595463218959
ONEWEB-0284             
1 49002U 21060AM  26011.14529540  .00000163  00000+0  39395-3 0  9995
2 49002  87.9036 260.0404 0001189  86.9463 273.1804 13.16594397218937
ONEWEB-0285             
1 49075U 21075A   26011.01099219  .00000434  00000+0  11697-2 0  9997
2 49075  87.8926  21.8693 0001693  90.1677 269.9646 13.12441221214599
ONEWEB-0286             
1 49076U 21075B   26011.29873083 -.00000086  00000+0 -27378-3 0  9996
2 49076  87.8922  21.8434 0001939  92.4404 267.6946 13.12443974213982
ONEWEB-0287             
1 49077U 21075C   26011.13065984  .00000106  00000+0  23861-3 0  9997
2 49077  87.9093  37.0858 0002169 102.2502 257.8873 13.17648001212945
ONEWEB-0288             
1 49078U 21075D   26011.27514222 -.00000306  00000+0 -88558-3 0  9995
2 49078  87.8925  21.8118 0001721  94.1329 265.9997 13.12444410214603
ONEWEB-0289             
1 49079U 21075E   26011.32121213  .00000000  00000+0 -34427-4 0  9993
2 49079  87.9086  37.0606 0001449 102.6482 257.4812 13.17649152213545
ONEWEB-0290             
1 49080U 21075F   26011.29434910 -.00000038  00000+0 -13053-3 0  9995
2 49080  87.9096  37.0303 0001186  96.5409 263.5858 13.17649426212956
ONEWEB-0291             
1 49081U 21075G   26011.12728781  .00000109  00000+0  24630-3 0  9990
2 49081  87.9098  37.0711 0001870 106.4238 253.7100 13.17650167212925
ONEWEB-0293             
1 49082U 21075H   26011.30447384  .00000002  00000+0 -26990-4 0  9993
2 49082  87.9086  37.0530 0001666  96.9249 263.2072 13.17650377212972
ONEWEB-0294             
1 49083U 21075J   26011.28191940 -.00000413  00000+0 -11821-2 0  9997
2 49083  87.8928  21.8126 0001446  96.8063 263.3230 13.12444526213990
ONEWEB-0295             
1 49084U 21075K   26011.30361110 -.00000040  00000+0 -13518-3 0  9991
2 49084  87.9087  37.0576 0001926 104.2240 255.9105 13.17650488212932
ONEWEB-0296             
1 49085U 21075L   26011.26159128  .00000049  00000+0  10125-3 0  9999
2 49085  87.8925  21.8200 0001814 102.2029 257.9303 13.12443767213991
ONEWEB-0297             
1 49086U 21075M   26011.29209027 -.00000358  00000+0 -10300-2 0  9996
2 49086  87.8918  21.8437 0001811  93.1571 266.9765 13.12443662214608
ONEWEB-0298             
1 49087U 21075N   26011.30798418 -.00000031  00000+0 -11291-3 0  9995
2 49087  87.9087  37.0533 0001947  91.9810 268.1545 13.17649613212961
ONEWEB-0299             
1 49088U 21075P   26011.30953366 -.00000026  00000+0 -99043-4 0  9997
2 49088  87.9097  37.0179 0001932  97.8157 262.3194 13.17649998212942
